{
  "type": "FeatureCollection",
  "features": [
    {
      "type": "Feature",
      "properties": {
        "norad_id": 54259,
        "name": "EUTELSAT 10B",
        "group": "eutelsat",
        "lat": 0.020927770554065778,
        "lon": 91.34073338289315,
        "alt_km": 35783.537243983475,
        "timestamp": "2025-12-17T23:38:06.534382+00:00",
        "meta_object_name": "EUTELSAT 10B",
        "meta_object_id": "2022-157A",
        "meta_epoch": "2025-12-17T08:14:15.238752",
        "meta_mean_motion": 1.00271162,
        "meta_eccentricity": 0.00010348,
        "meta_inclination": 0.0613,
        "meta_ra_of_asc_node": 98.3605,
        "meta_arg_of_pericenter": 45.4246,
        "meta_mean_anomaly": 75.9818,
        "meta_ephemeris_type": 0,
        "meta_classification_type": "U",
        "meta_norad_cat_id": 54259,
        "meta_element_set_no": 999,
        "meta_rev_at_epoch": 1120,
        "meta_bstar": 0,
        "meta_mean_motion_dot": 9.3e-07,
        "meta_mean_motion_ddot": 0,
        "tle_line1": "1 54259U 22157A   25351.34323193  .00000093  00000+0  00000+0 0  9996",
        "tle_line2": "2 54259   0.0613  98.3605 0001034  45.4246  75.9818  1.00271162 11203"
      },
      "geometry": {
        "type": "Point",
        "coordinates": [
          91.34073338289315,
          0.020927770554065778
        ]
      }
    },
    {
      "type": "Feature",
      "properties": {
        "norad_id": 59346,
        "name": "EUTELSAT 36D",
        "group": "eutelsat",
        "lat": 0.043277969497183724,
        "lon": 117.2013683745622,
        "alt_km": 35786.54591940035,
        "timestamp": "2025-12-17T23:38:06.534393+00:00",
        "meta_object_name": "EUTELSAT 36D",
        "meta_object_id": "2024-059A",
        "meta_epoch": "2025-12-16T15:14:19.027680",
        "meta_mean_motion": 1.00271145,
        "meta_eccentricity": 3.915e-05,
        "meta_inclination": 0.0246,
        "meta_ra_of_asc_node": 4.3594,
        "meta_arg_of_pericenter": 5.8864,
        "meta_mean_anomaly": 339.6859,
        "meta_ephemeris_type": 0,
        "meta_classification_type": "U",
        "meta_norad_cat_id": 59346,
        "meta_element_set_no": 999,
        "meta_rev_at_epoch": 631,
        "meta_bstar": 0,
        "meta_mean_motion_dot": 0,
        "meta_mean_motion_ddot": 0,
        "tle_line1": "1 59346U 24059A   25350.63494245  .00000000  00000+0  00000+0 0  9997",
        "tle_line2": "2 59346   0.0246   4.3594 0000391   5.8864 339.6859  1.00271145  6314"
      },
      "geometry": {
        "type": "Point",
        "coordinates": [
          117.2013683745622,
          0.043277969497183724
        ]
      }
    }
  ]
}